{"type": "FeatureCollection", "features": [{"type": "Feature", "geometry": {"type": "Polygon", "coordinates": [[[85.6, 23.1], [85.64999999999999, 23.1], [85.64999999999999, 23.150000000000002], [85.6, 23.150000000000002], [85.6, 23.1]]]}, "properties": {"block_id": "PUR_01", "block_name": "Arsha", "district": "Purulia"}}, {"type": "Feature", "geometry": {"type": "Polygon", "coordinates": [[[85.66, 23.1], [85.71, 23.1], [85.71, 23.150000000000002], [85.66, 23.150000000000002], [85.66, 23.1]]]}, "properties": {"block_id": "PUR_02", "block_name": "Baghmundi", "district": "Purulia"}}, {"type": "Feature", "geometry": {"type": "Polygon", "coordinates": [[[85.72, 23.1], [85.77, 23.1], [85.77, 23.150000000000002], [85.72, 23.150000000000002], [85.72, 23.1]]]}, "properties": {"block_id": "PUR_03", "block_name": "Balarampur", "district": "Purulia"}}, {"type": "Feature", "geometry": {"type": "Polygon", "coordinates": [[[85.78, 23.1], [85.83, 23.1], [85.83, 23.150000000000002], [85.78, 23.150000000000002], [85.78, 23.1]]]}, "properties": {"block_id": "PUR_04", "block_name": "Barabazar", "district": "Purulia"}}, {"type": "Feature", "geometry": {"type": "Polygon", "coordinates": [[[85.83999999999999, 23.1], [85.88999999999999, 23.1], [85.88999999999999, 23.150000000000002], [85.83999999999999, 23.150000000000002], [85.83999999999999, 23.1]]]}, "properties": {"block_id": "PUR_05", "block_name": "Bundwan", "district": "Purulia"}}, {"type": "Feature", "geometry": {"type": "Polygon", "coordinates": [[[85.6, 23.16], [85.64999999999999, 23.16], [85.64999999999999, 23.21], [85.6, 23.21], [85.6, 23.16]]]}, "properties": {"block_id": "PUR_06", "block_name": "Hura", "district": "Purulia"}}, {"type": "Feature", "geometry": {"type": "Polygon", "coordinates": [[[85.66, 23.16], [85.71, 23.16], [85.71, 23.21], [85.66, 23.21], [85.66, 23.16]]]}, "properties": {"block_id": "PUR_07", "block_name": "Jaipur", "district": "Purulia"}}, {"type": "Feature", "geometry": {"type": "Polygon", "coordinates": [[[85.72, 23.16], [85.77, 23.16], [85.77, 23.21], [85.72, 23.21], [85.72, 23.16]]]}, "properties": {"block_id": "PUR_08", "block_name": "Jhalda-I", "district": "Purulia"}}, {"type": "Feature", "geometry": {"type": "Polygon", "coordinates": [[[85.78, 23.16], [85.83, 23.16], [85.83, 23.21], [85.78, 23.21], [85.78, 23.16]]]}, "properties": {"block_id": "PUR_09", "block_name": "Jhalda-II", "district": "Purulia"}}, {"type": "Feature", "geometry": {"type": "Polygon", "coordinates": [[[85.83999999999999, 23.16], [85.88999999999999, 23.16], [85.88999999999999, 23.21], [85.83999999999999, 23.21], [85.83999999999999, 23.16]]]}, "properties": {"block_id": "PUR_10", "block_name": "Kashipur", "district": "Purulia"}}, {"type": "Feature", "geometry": {"type": "Polygon", "coordinates": [[[85.6, 23.220000000000002], [85.64999999999999, 23.220000000000002], [85.64999999999999, 23.270000000000003], [85.6, 23.270000000000003], [85.6, 23.220000000000002]]]}, "properties": {"block_id": "PUR_11", "block_name": "Manbazar-I", "district": "Purulia"}}, {"type": "Feature", "geometry": {"type": "Polygon", "coordinates": [[[85.66, 23.220000000000002], [85.71, 23.220000000000002], [85.71, 23.270000000000003], [85.66, 23.270000000000003], [85.66, 23.220000000000002]]]}, "properties": {"block_id": "PUR_12", "block_name": "Manbazar-II", "district": "Purulia"}}, {"type": "Feature", "geometry": {"type": "Polygon", "coordinates": [[[85.72, 23.220000000000002], [85.77, 23.220000000000002], [85.77, 23.270000000000003], [85.72, 23.270000000000003], [85.72, 23.220000000000002]]]}, "properties": {"block_id": "PUR_13", "block_name": "Neturia", "district": "Purulia"}}, {"type": "Feature", "geometry": {"type": "Polygon", "coordinates": [[[85.78, 23.220000000000002], [85.83, 23.220000000000002], [85.83, 23.270000000000003], [85.78, 23.270000000000003], [85.78, 23.220000000000002]]]}, "properties": {"block_id": "PUR_14", "block_name": "Para", "district": "Purulia"}}, {"type": "Feature", "geometry": {"type": "Polygon", "coordinates": [[[85.83999999999999, 23.220000000000002], [85.88999999999999, 23.220000000000002], [85.88999999999999, 23.270000000000003], [85.83999999999999, 23.270000000000003], [85.83999999999999, 23.220000000000002]]]}, "properties": {"block_id": "PUR_15", "block_name": "Puncha", "district": "Purulia"}}, {"type": "Feature", "geometry": {"type": "Polygon", "coordinates": [[[85.6, 23.28], [85.64999999999999, 23.28], [85.64999999999999, 23.330000000000002], [85.6, 23.330000000000002], [85.6, 23.28]]]}, "properties": {"block_id": "PUR_16", "block_name": "Purulia-I", "district": "Purulia"}}, {"type": "Feature", "geometry": {"type": "Polygon", "coordinates": [[[85.66, 23.28], [85.71, 23.28], [85.71, 23.330000000000002], [85.66, 23.330000000000002], [85.66, 23.28]]]}, "properties": {"block_id": "PUR_17", "block_name": "Purulia-II", "district": "Purulia"}}, {"type": "Feature", "geometry": {"type": "Polygon", "coordinates": [[[85.72, 23.28], [85.77, 23.28], [85.77, 23.330000000000002], [85.72, 23.330000000000002], [85.72, 23.28]]]}, "properties": {"block_id": "PUR_18", "block_name": "Raghunathpur-I", "district": "Purulia"}}, {"type": "Feature", "geometry": {"type": "Polygon", "coordinates": [[[85.78, 23.28], [85.83, 23.28], [85.83, 23.330000000000002], [85.78, 23.330000000000002], [85.78, 23.28]]]}, "properties": {"block_id": "PUR_19", "block_name": "Raghunathpur-II", "district": "Purulia"}}, {"type": "Feature", "geometry": {"type": "Polygon", "coordinates": [[[85.83999999999999, 23.28], [85.88999999999999, 23.28], [85.88999999999999, 23.330000000000002], [85.83999999999999, 23.330000000000002], [85.83999999999999, 23.28]]]}, "properties": {"block_id": "PUR_20", "block_name": "Santuri", "district": "Purulia"}}, {"type": "Feature", "geometry": {"type": "Polygon", "coordinates": [[[86.5, 22.6], [86.55, 22.6], [86.55, 22.650000000000002], [86.5, 22.650000000000002], [86.5, 22.6]]]}, "properties": {"block_id": "BAN_01", "block_name": "Bankura-I", "district": "Bankura"}}, {"type": "Feature", "geometry": {"type": "Polygon", "coordinates": [[[86.56, 22.6], [86.61, 22.6], [86.61, 22.650000000000002], [86.56, 22.650000000000002], [86.56, 22.6]]]}, "properties": {"block_id": "BAN_02", "block_name": "Bankura-II", "district": "Bankura"}}, {"type": "Feature", "geometry": {"type": "Polygon", "coordinates": [[[86.62, 22.6], [86.67, 22.6], [86.67, 22.650000000000002], [86.62, 22.650000000000002], [86.62, 22.6]]]}, "properties": {"block_id": "BAN_03", "block_name": "Barjora", "district": "Bankura"}}, {"type": "Feature", "geometry": {"type": "Polygon", "coordinates": [[[86.68, 22.6], [86.73, 22.6], [86.73, 22.650000000000002], [86.68, 22.650000000000002], [86.68, 22.6]]]}, "properties": {"block_id": "BAN_04", "block_name": "Bishnupur", "district": "Bankura"}}, {"type": "Feature", "geometry": {"type": "Polygon", "coordinates": [[[86.74, 22.6], [86.78999999999999, 22.6], [86.78999999999999, 22.650000000000002], [86.74, 22.650000000000002], [86.74, 22.6]]]}, "properties": {"block_id": "BAN_05", "block_name": "Chhatna", "district": "Bankura"}}, {"type": "Feature", "geometry": {"type": "Polygon", "coordinates": [[[86.8, 22.6], [86.85, 22.6], [86.85, 22.650000000000002], [86.8, 22.650000000000002], [86.8, 22.6]]]}, "properties": {"block_id": "BAN_06", "block_name": "Gangajalghati", "district": "Bankura"}}, {"type": "Feature", "geometry": {"type": "Polygon", "coordinates": [[[86.5, 22.66], [86.55, 22.66], [86.55, 22.71], [86.5, 22.71], [86.5, 22.66]]]}, "properties": {"block_id": "BAN_07", "block_name": "Hirbandh", "district": "Bankura"}}, {"type": "Feature", "geometry": {"type": "Polygon", "coordinates": [[[86.56, 22.66], [86.61, 22.66], [86.61, 22.71], [86.56, 22.71], [86.56, 22.66]]]}, "properties": {"block_id": "BAN_08", "block_name": "Indpur", "district": "Bankura"}}, {"type": "Feature", "geometry": {"type": "Polygon", "coordinates": [[[86.62, 22.66], [86.67, 22.66], [86.67, 22.71], [86.62, 22.71], [86.62, 22.66]]]}, "properties": {"block_id": "BAN_09", "block_name": "Indus", "district": "Bankura"}}, {"type": "Feature", "geometry": {"type": "Polygon", "coordinates": [[[86.68, 22.66], [86.73, 22.66], [86.73, 22.71], [86.68, 22.71], [86.68, 22.66]]]}, "properties": {"block_id": "BAN_10", "block_name": "Jaypur", "district": "Bankura"}}, {"type": "Feature", "geometry": {"type": "Polygon", "coordinates": [[[86.74, 22.66], [86.78999999999999, 22.66], [86.78999999999999, 22.71], [86.74, 22.71], [86.74, 22.66]]]}, "properties": {"block_id": "BAN_11", "block_name": "Khatra", "district": "Bankura"}}, {"type": "Feature", "geometry": {"type": "Polygon", "coordinates": [[[86.8, 22.66], [86.85, 22.66], [86.85, 22.71], [86.8, 22.71], [86.8, 22.66]]]}, "properties": {"block_id": "BAN_12", "block_name": "Kotulpur", "district": "Bankura"}}, {"type": "Feature", "geometry": {"type": "Polygon", "coordinates": [[[86.5, 22.720000000000002], [86.55, 22.720000000000002], [86.55, 22.770000000000003], [86.5, 22.770000000000003], [86.5, 22.720000000000002]]]}, "properties": {"block_id": "BAN_13", "block_name": "Mejhia", "district": "Bankura"}}, {"type": "Feature", "geometry": {"type": "Polygon", "coordinates": [[[86.56, 22.720000000000002], [86.61, 22.720000000000002], [86.61, 22.770000000000003], [86.56, 22.770000000000003], [86.56, 22.720000000000002]]]}, "properties": {"block_id": "BAN_14", "block_name": "Onda", "district": "Bankura"}}, {"type": "Feature", "geometry": {"type": "Polygon", "coordinates": [[[86.62, 22.720000000000002], [86.67, 22.720000000000002], [86.67, 22.770000000000003], [86.62, 22.770000000000003], [86.62, 22.720000000000002]]]}, "properties": {"block_id": "BAN_15", "block_name": "Patrasayer", "district": "Bankura"}}, {"type": "Feature", "geometry": {"type": "Polygon", "coordinates": [[[86.68, 22.720000000000002], [86.73, 22.720000000000002], [86.73, 22.770000000000003], [86.68, 22.770000000000003], [86.68, 22.720000000000002]]]}, "properties": {"block_id": "BAN_16", "block_name": "Raipur", "district": "Bankura"}}, {"type": "Feature", "geometry": {"type": "Polygon", "coordinates": [[[86.74, 22.720000000000002], [86.78999999999999, 22.720000000000002], [86.78999999999999, 22.770000000000003], [86.74, 22.770000000000003], [86.74, 22.720000000000002]]]}, "properties": {"block_id": "BAN_17", "block_name": "Ranibandh", "district": "Bankura"}}, {"type": "Feature", "geometry": {"type": "Polygon", "coordinates": [[[86.8, 22.720000000000002], [86.85, 22.720000000000002], [86.85, 22.770000000000003], [86.8, 22.770000000000003], [86.8, 22.720000000000002]]]}, "properties": {"block_id": "BAN_18", "block_name": "Saltora", "district": "Bankura"}}, {"type": "Feature", "geometry": {"type": "Polygon", "coordinates": [[[86.5, 22.78], [86.55, 22.78], [86.55, 22.830000000000002], [86.5, 22.830000000000002], [86.5, 22.78]]]}, "properties": {"block_id": "BAN_19", "block_name": "Sarenga", "district": "Bankura"}}, {"type": "Feature", "geometry": {"type": "Polygon", "coordinates": [[[86.56, 22.78], [86.61, 22.78], [86.61, 22.830000000000002], [86.56, 22.830000000000002], [86.56, 22.78]]]}, "properties": {"block_id": "BAN_20", "block_name": "Simlapal", "district": "Bankura"}}, {"type": "Feature", "geometry": {"type": "Polygon", "coordinates": [[[86.62, 22.78], [86.67, 22.78], [86.67, 22.830000000000002], [86.62, 22.830000000000002], [86.62, 22.78]]]}, "properties": {"block_id": "BAN_21", "block_name": "Sonamukhi", "district": "Bankura"}}, {"type": "Feature", "geometry": {"type": "Polygon", "coordinates": [[[86.68, 22.78], [86.73, 22.78], [86.73, 22.830000000000002], [86.68, 22.830000000000002], [86.68, 22.78]]]}, "properties": {"block_id": "BAN_22", "block_name": "Taldangra", "district": "Bankura"}}, {"type": "Feature", "geometry": {"type": "Polygon", "coordinates": [[[87.8, 22.3], [87.85, 22.3], [87.85, 22.35], [87.8, 22.35], [87.8, 22.3]]]}, "properties": {"block_id": "HOW_01", "block_name": "Amta-I", "district": "Howrah"}}, {"type": "Feature", "geometry": {"type": "Polygon", "coordinates": [[[87.86, 22.3], [87.91, 22.3], [87.91, 22.35], [87.86, 22.35], [87.86, 22.3]]]}, "properties": {"block_id": "HOW_02", "block_name": "Amta-II", "district": "Howrah"}}, {"type": "Feature", "geometry": {"type": "Polygon", "coordinates": [[[87.92, 22.3], [87.97, 22.3], [87.97, 22.35], [87.92, 22.35], [87.92, 22.3]]]}, "properties": {"block_id": "HOW_03", "block_name": "Bagnan-I", "district": "Howrah"}}, {"type": "Feature", "geometry": {"type": "Polygon", "coordinates": [[[87.98, 22.3], [88.03, 22.3], [88.03, 22.35], [87.98, 22.35], [87.98, 22.3]]]}, "properties": {"block_id": "HOW_04", "block_name": "Bagnan-II", "district": "Howrah"}}, {"type": "Feature", "geometry": {"type": "Polygon", "coordinates": [[[87.8, 22.36], [87.85, 22.36], [87.85, 22.41], [87.8, 22.41], [87.8, 22.36]]]}, "properties": {"block_id": "HOW_05", "block_name": "Domjur", "district": "Howrah"}}, {"type": "Feature", "geometry": {"type": "Polygon", "coordinates": [[[87.86, 22.36], [87.91, 22.36], [87.91, 22.41], [87.86, 22.41], [87.86, 22.36]]]}, "properties": {"block_id": "HOW_06", "block_name": "Jagatballavpur", "district": "Howrah"}}, {"type": "Feature", "geometry": {"type": "Polygon", "coordinates": [[[87.92, 22.36], [87.97, 22.36], [87.97, 22.41], [87.92, 22.41], [87.92, 22.36]]]}, "properties": {"block_id": "HOW_07", "block_name": "Panchla", "district": "Howrah"}}, {"type": "Feature", "geometry": {"type": "Polygon", "coordinates": [[[87.98, 22.36], [88.03, 22.36], [88.03, 22.41], [87.98, 22.41], [87.98, 22.36]]]}, "properties": {"block_id": "HOW_08", "block_name": "Sankrail", "district": "Howrah"}}, {"type": "Feature", "geometry": {"type": "Polygon", "coordinates": [[[87.8, 22.42], [87.85, 22.42], [87.85, 22.470000000000002], [87.8, 22.470000000000002], [87.8, 22.42]]]}, "properties": {"block_id": "HOW_09", "block_name": "Shyampur-I", "district": "Howrah"}}, {"type": "Feature", "geometry": {"type": "Polygon", "coordinates": [[[87.86, 22.42], [87.91, 22.42], [87.91, 22.470000000000002], [87.86, 22.470000000000002], [87.86, 22.42]]]}, "properties": {"block_id": "HOW_10", "block_name": "Shyampur-II", "district": "Howrah"}}, {"type": "Feature", "geometry": {"type": "Polygon", "coordinates": [[[87.92, 22.42], [87.97, 22.42], [87.97, 22.470000000000002], [87.92, 22.470000000000002], [87.92, 22.42]]]}, "properties": {"block_id": "HOW_11", "block_name": "Udaynarayanpur", "district": "Howrah"}}, {"type": "Feature", "geometry": {"type": "Polygon", "coordinates": [[[87.98, 22.42], [88.03, 22.42], [88.03, 22.470000000000002], [87.98, 22.470000000000002], [87.98, 22.42]]]}, "properties": {"block_id": "HOW_12", "block_name": "Uluberia-I", "district": "Howrah"}}, {"type": "Feature", "geometry": {"type": "Polygon", "coordinates": [[[87.8, 22.48], [87.85, 22.48], [87.85, 22.53], [87.8, 22.53], [87.8, 22.48]]]}, "properties": {"block_id": "HOW_13", "block_name": "Uluberia-II", "district": "Howrah"}}, {"type": "Feature", "geometry": {"type": "Polygon", "coordinates": [[[87.86, 22.48], [87.91, 22.48], [87.91, 22.53], [87.86, 22.53], [87.86, 22.48]]]}, "properties": {"block_id": "HOW_14", "block_name": "Bally-Jagachha", "district": "Howrah"}}]}